CTC1_L_00622007-03
1 53061U 22118ZQ  26070.40841435  .00000000  00000+0  00000-0 0  9992
2 53061  70.0000 180.0000 0000000   0.0000 144.0000  4.55247085    13
CTC1_L_00622007-04
1 53062U 25490GB  26070.40841435  .00000000  00000+0  00000-0 0  9999
2 53062  70.0000 180.0000 0000000   0.0000 180.0000  4.55247085    14
CTC1_L_00622007-05
1 53063U 25186MB  26070.40841435  .00000000  00000+0  00000-0 0  9992
2 53063  70.0000 180.0000 0000000   0.0000 216.0000  4.55247085    15
CTC1_L_00622007-06
1 53064U 25479KD  26070.40841435  .00000000  00000+0  00000-0 0  9998
2 53064  70.0000 180.0000 0000000   0.0000 252.0000  4.55247085    16
CTC1_L_00622007-07
1 53065U 25832GY  26070.40841435  .00000000  00000+0  00000-0 0  9992
2 53065  70.0000 180.0000 0000000   0.0000 288.0000  4.55247085    16
CTC1_L_00622007-08
1 53066U 22734CI  26070.40841435  .00000000  00000+0  00000-0 0  9991
2 53066  70.0000 180.0000 0000000   0.0000 324.0000  4.55247085    18
CTC1_L_00622007-09
1 53067U 26980NR  26070.40841435  .00000000  00000+0  00000-0 0  9999
2 53067  70.0000 180.0000 0000000   0.0000   0.0000  4.55247085    10
CTC1_L_00622007-10
1 53068U 23110RK  26070.40841435  .00000000  00000+0  00000-0 0  9992
2 53068  70.0000 180.0000 0000000   0.0000  36.0000  4.55247085    10
CTC1_L_00622008-01
1 53069U 24948IO  26070.40841435  .00000000  00000+0  00000-0 0  9993
2 53069  70.0000 210.0000 0000000   0.0000  84.0000  4.55247085    18
CTC1_L_00622008-02
1 53070U 23746RC  26070.40841435  .00000000  00000+0  00000-0 0  9990
2 53070  70.0000 210.0000 0000000   0.0000 120.0000  4.55247085    11
CTC1_L_00622008-03
1 53071U 22298IO  26070.40841435  .00000000  00000+0  00000-0 0  9992
2 53071  70.0000 210.0000 0000000   0.0000 156.0000  4.55247085    11
CTC1_L_00622008-04
1 53072U 26890R   26070.40841435  .00000000  00000+0  00000-0 0  9995
2 53072  70.0000 210.0000 0000000   0.0000 192.0000  4.55247085    12
CTC1_L_00622008-05
1 53073U 23755QL  26070.40841435  .00000000  00000+0  00000-0 0  9993
2 53073  70.0000 210.0000 0000000   0.0000 228.0000  4.55247085    13
CTC1_L_00622008-06
1 53074U 25147NR  26070.40841435  .00000000  00000+0  00000-0 0  9991
2 53074  70.0000 210.0000 0000000   0.0000 264.0000  4.55247085    14
CTC1_L_00622008-07
1 53075U 23886KI  26070.40841435  .00000000  00000+0  00000-0 0  9990
2 53075  70.0000 210.0000 0000000   0.0000 300.0000  4.55247085    16
CTC1_L_00622008-08
1 53076U 26634IH  26070.40841435  .00000000  00000+0  00000-0 0  9995
2 53076  70.0000 210.0000 0000000   0.0000 336.0000  4.55247085    16
CTC1_L_00622008-09
1 53077U 26745DN  26070.40841435  .00000000  00000+0  00000-0 0  9999
2 53077  70.0000 210.0000 0000000   0.0000  12.0000  4.55247085    18
CTC1_L_00622008-10
1 53078U 23238BD  26070.40841435  .00000000  00000+0  00000-0 0  9994
2 53078  70.0000 210.0000 0000000   0.0000  48.0000  4.55247085    18
CTC1_L_00622009-01
1 53079U 24221HS  26070.40841435  .00000000  00000+0  00000-0 0  9998
2 53079  70.0000 240.0000 0000000   0.0000  96.0000  4.55247085    15
CTC1_L_00622009-02
1 53080U 23676AL  26070.40841435  .00000000  00000+0  00000-0 0  9993
2 53080  70.0000 240.0000 0000000   0.0000 132.0000  4.55247085    18
CTC1_L_00622009-03
1 53081U 23218QS  26070.40841435  .00000000  00000+0  00000-0 0  9996
2 53081  70.0000 240.0000 0000000   0.0000 168.0000  4.55247085    18
CTC1_L_00622009-04
1 53082U 24144YI  26070.40841435  .00000000  00000+0  00000-0 0  9996
2 53082  70.0000 240.0000 0000000   0.0000 204.0000  4.55247085    10
CTC1_L_00622009-05
1 53083U 26467YD  26070.40841435  .00000000  00000+0  00000-0 0  9997
2 53083  70.0000 240.0000 0000000   0.0000 240.0000  4.55247085    11
CTC1_L_00622009-06
1 53084U 22508WV  26070.40841435  .00000000  00000+0  00000-0 0  9990
2 53084  70.0000 240.0000 0000000   0.0000 276.0000  4.55247085    11
CTC1_L_00622009-07
1 53085U 25397SZ  26070.40841435  .00000000  00000+0  00000-0 0  9990
2 53085  70.0000 240.0000 0000000   0.0000 312.0000  4.55247085    13
CTC1_L_00622009-08
1 53086U 22714ET  26070.40841435  .00000000  00000+0  00000-0 0  9991
2 53086  70.0000 240.0000 0000000   0.0000 348.0000  4.55247085    13
CTC1_L_00622009-09
1 53087U 26643IL  26070.40841435  .00000000  00000+0  00000-0 0  9997
2 53087  70.0000 240.0000 0000000   0.0000  24.0000  4.55247085    15
CTC1_L_00622009-10
1 53088U 22314EY  26070.40841435  .00000000  00000+0  00000-0 0  9999
2 53088  70.0000 240.0000 0000000   0.0000  60.0000  4.55247085    16
CTC1_L_00622010-01
1 53089U 24617VE  26070.40841435  .00000000  00000+0  00000-0 0  9998
2 53089  70.0000 270.0000 0000000   0.0000 108.0000  4.55247085    13
CTC1_L_00622010-02
1 53090U 22558UC  26070.40841435  .00000000  00000+0  00000-0 0  9992
2 53090  70.0000 270.0000 0000000   0.0000 144.0000  4.55247085    15
CTC1_L_00622010-03
1 53091U 24668IG  26070.40841435  .00000000  00000+0  00000-0 0  9997
2 53091  70.0000 270.0000 0000000   0.0000 180.0000  4.55247085    16
CTC1_L_00622010-04
1 53092U 26593Y   26070.40841435  .00000000  00000+0  00000-0 0  9997
2 53092  70.0000 270.0000 0000000   0.0000 216.0000  4.55247085    17
CTC1_L_00622010-05
1 53093U 25077LA  26070.40841435  .00000000  00000+0  00000-0 0  9994
2 53093  70.0000 270.0000 0000000   0.0000 252.0000  4.55247085    18
CTC1_L_00622010-06
1 53094U 22320AF  26070.40841435  .00000000  00000+0  00000-0 0  9993
2 53094  70.0000 270.0000 0000000   0.0000 288.0000  4.55247085    18
CTC1_L_00622010-07
1 53095U 24868PU  26070.40841435  .00000000  00000+0  00000-0 0  9993
2 53095  70.0000 270.0000 0000000   0.0000 324.0000  4.55247085    10
CTC1_L_00622010-08
1 53096U 22912QX  26070.40841435  .00000000  00000+0  00000-0 0  9992
2 53096  70.0000 270.0000 0000000   0.0000   0.0000  4.55247085    12
CTC1_L_00622010-09
1 53097U 26904JW  26070.40841435  .00000000  00000+0  00000-0 0  9998
2 53097  70.0000 270.0000 0000000   0.0000  36.0000  4.55247085    12
CTC1_L_00622010-10
1 53098U 24721RQ  26070.40841435  .00000000  00000+0  00000-0 0  9994
2 53098  70.0000 270.0000 0000000   0.0000  72.0000  4.55247085    13
CTC1_L_00622011-01
1 53099U 22866YG  26070.40841435  .00000000  00000+0  00000-0 0  9993
2 53099  70.0000 300.0000 0000000   0.0000 120.0000  4.55247085    12
CTC1_L_00622011-02
1 53100U 26823YE  26070.40841435  .00000000  00000+0  00000-0 0  9993
2 53100  70.0000 300.0000 0000000   0.0000 156.0000  4.55247085    14
CTC1_L_00622011-03
1 53101U 23272DK  26070.40841435  .00000000  00000+0  00000-0 0  9999
2 53101  70.0000 300.0000 0000000   0.0000 192.0000  4.55247085    15
CTC1_L_00622011-04
1 53102U 26559VT  26070.40841435  .00000000  00000+0  00000-0 0  9991
2 53102  70.0000 300.0000 0000000   0.0000 228.0000  4.55247085    16
CTC1_L_00622011-05
1 53103U 26482TP  26070.40841435  .00000000  00000+0  00000-0 0  9997
2 53103  70.0000 300.0000 0000000   0.0000 264.0000  4.55247085    17
CTC1_L_00622011-06
1 53104U 22503LN  26070.40841435  .00000000  00000+0  00000-0 0  9998
2 53104  70.0000 300.0000 0000000   0.0000 300.0000  4.55247085    19
CTC1_L_00622011-07
1 53105U 24389XA  26070.40841435  .00000000  00000+0  00000-0 0  9993
2 53105  70.0000 300.0000 0000000   0.0000 336.0000  4.55247085    19
CTC1_L_00622011-08
1 53106U 23867FK  26070.40841435  .00000000  00000+0  00000-0 0  9994
2 53106  70.0000 300.0000 0000000   0.0000  12.0000  4.55247085    11
CTC1_L_00622011-09
1 53107U 24104GE  26070.40841435  .00000000  00000+0  00000-0 0  9990
2 53107  70.0000 300.0000 0000000   0.0000  48.0000  4.55247085    11
CTC1_L_00622011-10
1 53108U 22136VC  26070.40841435  .00000000  00000+0  00000-0 0  9994
2 53108  70.0000 300.0000 0000000   0.0000  84.0000  4.55247085    12
CTC1_L_00622012-01
1 53109U 26955SS  26070.40841435  .00000000  00000+0  00000-0 0  9998
2 53109  70.0000 330.0000 0000000   0.0000 132.0000  4.55247085    10
CTC1_L_00622012-02
1 53110U 25729DO  26070.40841435  .00000000  00000+0  00000-0 0  9998
2 53110  70.0000 330.0000 0000000   0.0000 168.0000  4.55247085    11
CTC1_L_00622012-03
1 53111U 22771IF  26070.40841435  .00000000  00000+0  00000-0 0  9993
2 53111  70.0000 330.0000 0000000   0.0000 204.0000  4.55247085    13
CTC1_L_00622012-04
1 53112U 26082RY  26070.40841435  .00000000  00000+0  00000-0 0  9993
2 53112  70.0000 330.0000 0000000   0.0000 240.0000  4.55247085    14
CTC1_L_00622012-05
1 53113U 22941DC  26070.40841435  .00000000  00000+0  00000-0 0  9994
2 53113  70.0000 330.0000 0000000   0.0000 276.0000  4.55247085    14
CTC1_L_00622012-06
1 53114U 26395IS  26070.40841435  .00000000  00000+0  00000-0 0  9992
2 53114  70.0000 330.0000 0000000   0.0000 312.0000  4.55247085    16
CTC1_L_00622012-07
1 53115U 24339SG  26070.40841435  .00000000  00000+0  00000-0 0  9999
2 53115  70.0000 330.0000 0000000   0.0000 348.0000  4.55247085    16
CTC1_L_00622012-08
1 53116U 22335BM  26070.40841435  .00000000  00000+0  00000-0 0  9994
2 53116  70.0000 330.0000 0000000   0.0000  24.0000  4.55247085    18
CTC1_L_00622012-09
1 53117U 25713MP  26070.40841435  .00000000  00000+0  00000-0 0  9998
2 53117  70.0000 330.0000 0000000   0.0000  60.0000  4.55247085    19
CTC1_L_00622012-10
1 53118U 25471BP  26070.40841435  .00000000  00000+0  00000-0 0  9990
2 53118  70.0000 330.0000 0000000   0.0000  96.0000  4.55247085    19
